start=new Date('2022-12-20T00:00:00.000Z').valueOf();
sats=[{"OBJECT_TYPE":"PAYLOAD","BSTAR":"0.00018014000000","APOAPSIS":"541.619","NORAD_CAT_ID":"51863","ARG_OF_PERICENTER":"35.4221","EPOCH":"2022-12-19T22:40:58.028448","MEAN_ELEMENT_THEORY":"SGP4","OBJECT_NAME":"STARLINK-3555","PERIOD":"95.437","ELEMENT_SET_NO":"999","RCS_SIZE":"LARGE","TLE_LINE1":"1 51863U 22022M   22353.94511607  .00002580  00000-0  18014-3 0  9991","SITE":"AFETR","INCLINATION":"53.2176","TLE_LINE2":"2 51863  53.2176 247.2525 0002745  35.4221 324.6953 15.08848277 45619","MEAN_ANOMALY":"324.6953","COUNTRY_CODE":"US","SEMIMAJOR_AXIS":"6917.855","OBJECT_ID":"2022-022M","EPHEMERIS_TYPE":"0","ECCENTRICITY":"0.00027450","DECAY_DATE":null,"CLASSIFICATION_TYPE":"U","GP_ID":"220974572","FILE":"3711886","PERIAPSIS":"537.821","MEAN_MOTION":"15.08848277","MEAN_MOTION_DOT":"0.00002580","LAUNCH_DATE":"2022-03-03","MEAN_MOTION_DDOT":"0.0000000000000","RA_OF_ASC_NODE":"247.2525","REF_FRAME":"TEME","CENTER_NAME":"EARTH","REV_AT_EPOCH":"4561","TIME_SYSTEM":"UTC"},{"ARG_OF_PERICENTER":"27.8243","EPOCH":"2022-12-19T21:21:29.088864","NORAD_CAT_ID":"51864","APOAPSIS":"541.456","OBJECT_TYPE":"PAYLOAD","BSTAR":"0.00017727000000","ELEMENT_SET_NO":"999","RCS_SIZE":"LARGE","MEAN_ELEMENT_THEORY":"SGP4","OBJECT_NAME":"STARLINK-3548","PERIOD":"95.437","INCLINATION":"53.2183","TLE_LINE1":"1 51864U 22022N   22353.88992001  .00002534  00000-0  17727-3 0  9995","SITE":"AFETR","EPHEMERIS_TYPE":"0","SEMIMAJOR_AXIS":"6917.872","OBJECT_ID":"2022-022N","TLE_LINE2":"2 51864  53.2183 247.5006 0002484  27.8243 332.2881 15.08842650 45652","COUNTRY_CODE":"US","MEAN_ANOMALY":"332.2881","MEAN_MOTION":"15.08842650","GP_ID":"220973950","FILE":"3711886","PERIAPSIS":"538.019","MEAN_MOTION_DOT":"0.00002534","CLASSIFICATION_TYPE":"U","DECAY_DATE":null,"ECCENTRICITY":"0.00024840","CENTER_NAME":"EARTH","REV_AT_EPOCH":"4565","MEAN_MOTION_DDOT":"0.0000000000000","RA_OF_ASC_NODE":"247.5006","REF_FRAME":"TEME","LAUNCH_DATE":"2022-03-03","TIME_SYSTEM":"UTC"},{"INCLINATION":"53.2157","TLE_LINE1":"1 51865U 22022P   22353.73903311 -.00000945  00000-0 -41250-4 0  9991","SITE":"AFETR","ELEMENT_SET_NO":"999","RCS_SIZE":"LARGE","MEAN_ELEMENT_THEORY":"SGP4","OBJECT_NAME":"STARLINK-3503","PERIOD":"95.437","ARG_OF_PERICENTER":"25.8770","EPOCH":"2022-12-19T17:44:12.460704","APOAPSIS":"541.729","NORAD_CAT_ID":"51865","OBJECT_TYPE":"PAYLOAD","BSTAR":"-0.00004125000000","TIME_SYSTEM":"UTC","REV_AT_EPOCH":"4558","CENTER_NAME":"EARTH","REF_FRAME":"TEME","MEAN_MOTION_DDOT":"0.0000000000000","RA_OF_ASC_NODE":"248.1750","LAUNCH_DATE":"2022-03-03","FILE":"3711774","GP_ID":"220969698","MEAN_MOTION":"15.08856450","PERIAPSIS":"537.661","MEAN_MOTION_DOT":"-0.00000945","CLASSIFICATION_TYPE":"U","DECAY_DATE":null,"ECCENTRICITY":"0.00029400","EPHEMERIS_TYPE":"0","SEMIMAJOR_AXIS":"6917.830","OBJECT_ID":"2022-022P","TLE_LINE2":"2 51865  53.2157 248.1750 0002940  25.8770 334.2369 15.08856450 45585","MEAN_ANOMALY":"334.2369","COUNTRY_CODE":"US"},{"EPOCH":"2022-12-19T22:46:16.163616","ARG_OF_PERICENTER":"27.1528","NORAD_CAT_ID":"51866","APOAPSIS":"541.698","BSTAR":"0.00018407000000","OBJECT_TYPE":"PAYLOAD","RCS_SIZE":"LARGE","ELEMENT_SET_NO":"999","PERIOD":"95.437","OBJECT_NAME":"STARLINK-3553","MEAN_ELEMENT_THEORY":"SGP4","INCLINATION":"53.2179","TLE_LINE1":"1 51866U 22022Q   22353.94879819  .00002643  00000-0  18407-3 0  9992","SITE":"AFETR","EPHEMERIS_TYPE":"0","OBJECT_ID":"2022-022Q","SEMIMAJOR_AXIS":"6917.865","COUNTRY_CODE":"US","MEAN_ANOMALY":"332.9612","TLE_LINE2":"2 51866  53.2179 247.2250 0002846  27.1528 332.9612 15.08845158 45619","MEAN_MOTION_DOT":"0.00002643","GP_ID":"220974474","PERIAPSIS":"537.761","FILE":"3711887","MEAN_MOTION":"15.08845158","CLASSIFICATION_TYPE":"U","DECAY_DATE":null,"ECCENTRICITY":"0.00028460","CENTER_NAME":"EARTH","REV_AT_EPOCH":"4561","MEAN_MOTION_DDOT":"0.0000000000000","RA_OF_ASC_NODE":"247.2250","REF_FRAME":"TEME","LAUNCH_DATE":"2022-03-03","TIME_SYSTEM":"UTC"},{"EPOCH":"2022-12-20T00:00:27.050976","ARG_OF_PERICENTER":"41.7283","NORAD_CAT_ID":"51867","APOAPSIS":"541.482","BSTAR":"0.00005376400000","OBJECT_TYPE":"PAYLOAD","INCLINATION":"53.2153","TLE_LINE1":"1 51867U 22022R   22354.00031309  .00000568  00000-0  53764-4 0  9995","SITE":"AFETR","RCS_SIZE":"LARGE","ELEMENT_SET_NO":"999","PERIOD":"95.437","MEAN_ELEMENT_THEORY":"SGP4","OBJECT_NAME":"STARLINK-3590","MEAN_MOTION_DOT":"0.00000568","GP_ID":"220976747","FILE":"3712001","MEAN_MOTION":"15.08853178","PERIAPSIS":"537.928","CLASSIFICATION_TYPE":"U","DECAY_DATE":null,"ECCENTRICITY":"0.00025690","EPHEMERIS_TYPE":"0","OBJECT_ID":"2022-022R","SEMIMAJOR_AXIS":"6917.840","MEAN_ANOMALY":"318.3905","COUNTRY_CODE":"US","TLE_LINE2":"2 51867  53.2153 247.0001 0002569  41.7283 318.3905 15.08853178 45621","TIME_SYSTEM":"UTC","CENTER_NAME":"EARTH","REV_AT_EPOCH":"4562","MEAN_MOTION_DDOT":"0.0000000000000","REF_FRAME":"TEME","RA_OF_ASC_NODE":"247.0001","LAUNCH_DATE":"2022-03-03"},{"TLE_LINE2":"2 51868  53.2155 247.2639 0002353  34.0719 326.0424 15.08844069 45613","COUNTRY_CODE":"US","MEAN_ANOMALY":"326.0424","EPHEMERIS_TYPE":"0","SEMIMAJOR_AXIS":"6917.868","OBJECT_ID":"2022-022S","DECAY_DATE":null,"ECCENTRICITY":"0.00023530","GP_ID":"220974473","FILE":"3711887","PERIAPSIS":"538.105","MEAN_MOTION":"15.08844069","MEAN_MOTION_DOT":"0.00000267","CLASSIFICATION_TYPE":"U","MEAN_MOTION_DDOT":"0.0000000000000","RA_OF_ASC_NODE":"247.2639","REF_FRAME":"TEME","LAUNCH_DATE":"2022-03-03","REV_AT_EPOCH":"4561","CENTER_NAME":"EARTH","TIME_SYSTEM":"UTC","OBJECT_TYPE":"PAYLOAD","BSTAR":"0.00003488300000","ARG_OF_PERICENTER":"34.0719","EPOCH":"2022-12-19T22:35:40.594848","APOAPSIS":"541.361","NORAD_CAT_ID":"51868","ELEMENT_SET_NO":"999","RCS_SIZE":"LARGE","OBJECT_NAME":"STARLINK-3578","MEAN_ELEMENT_THEORY":"SGP4","PERIOD":"95.437","TLE_LINE1":"1 51868U 22022S   22353.94144207  .00000267  00000-0  34883-4 0  9997","SITE":"AFETR","INCLINATION":"53.2155"},{"APOAPSIS":"541.711","NORAD_CAT_ID":"51869","ARG_OF_PERICENTER":"33.6966","EPOCH":"2022-12-19T18:58:25.559904","BSTAR":"0.00014877000000","OBJECT_TYPE":"PAYLOAD","INCLINATION":"53.2148","SITE":"AFETR","TLE_LINE1":"1 51869U 22022T   22353.79057361  .00002080  00000-0  14877-3 0  9990","OBJECT_NAME":"STARLINK-3588","MEAN_ELEMENT_THEORY":"SGP4","PERIOD":"95.438","ELEMENT_SET_NO":"999","RCS_SIZE":"LARGE","CLASSIFICATION_TYPE":"U","PERIAPSIS":"537.788","GP_ID":"220969198","FILE":"3711774","MEAN_MOTION":"15.08838659","MEAN_MOTION_DOT":"0.00002080","ECCENTRICITY":"0.00028350","DECAY_DATE":null,"SEMIMAJOR_AXIS":"6917.884","OBJECT_ID":"2022-022T","EPHEMERIS_TYPE":"0","TLE_LINE2":"2 51869  53.2148 247.9514 0002835  33.6966 326.4206 15.08838659 45596","COUNTRY_CODE":"US","MEAN_ANOMALY":"326.4206","TIME_SYSTEM":"UTC","REV_AT_EPOCH":"4559","CENTER_NAME":"EARTH","LAUNCH_DATE":"2022-03-03","MEAN_MOTION_DDOT":"0.0000000000000","RA_OF_ASC_NODE":"247.9514","REF_FRAME":"TEME"},{"APOAPSIS":"541.537","NORAD_CAT_ID":"51870","ARG_OF_PERICENTER":"31.0134","EPOCH":"2022-12-19T00:04:22.019232","BSTAR":"0.00015222000000","OBJECT_TYPE":"PAYLOAD","MEAN_ELEMENT_THEORY":"SGP4","OBJECT_NAME":"STARLINK-3591","PERIOD":"95.437","ELEMENT_SET_NO":"999","RCS_SIZE":"LARGE","INCLINATION":"53.2154","TLE_LINE1":"1 51870U 22022U   22353.00303263  .00002135  00000-0  15222-3 0  9997","SITE":"AFETR","SEMIMAJOR_AXIS":"6917.877","OBJECT_ID":"2022-022U","EPHEMERIS_TYPE":"0","TLE_LINE2":"2 51870  53.2154 251.4770 0002595  31.0134 329.1011 15.08841224 45520","COUNTRY_CODE":"US","MEAN_ANOMALY":"329.1011","CLASSIFICATION_TYPE":"U","MEAN_MOTION":"15.08841224","GP_ID":"220935283","FILE":"3711365","PERIAPSIS":"537.946","MEAN_MOTION_DOT":"0.00002135","ECCENTRICITY":"0.00025950","DECAY_DATE":null,"CENTER_NAME":"EARTH","REV_AT_EPOCH":"4552","LAUNCH_DATE":"2022-03-03","MEAN_MOTION_DDOT":"0.0000000000000","REF_FRAME":"TEME","RA_OF_ASC_NODE":"251.4770","TIME_SYSTEM":"UTC"},{"BSTAR":"0.00019426000000","OBJECT_TYPE":"PAYLOAD","APOAPSIS":"541.391","NORAD_CAT_ID":"51871","ARG_OF_PERICENTER":"39.8051","EPOCH":"2022-12-19T23:39:15.012288","OBJECT_NAME":"STARLINK-3567","MEAN_ELEMENT_THEORY":"SGP4","PERIOD":"95.437","ELEMENT_SET_NO":"999","RCS_SIZE":"LARGE","TLE_LINE1":"1 51871U 22022V   22353.98559042  .00002806  00000-0  19426-3 0  9998","SITE":"AFETR","INCLINATION":"53.2152","TLE_LINE2":"2 51871  53.2152 247.0693 0002432  39.8051 320.3119 15.08852079 45665","MEAN_ANOMALY":"320.3119","COUNTRY_CODE":"US","SEMIMAJOR_AXIS":"6917.843","OBJECT_ID":"2022-022V","EPHEMERIS_TYPE":"0","ECCENTRICITY":"0.00024320","DECAY_DATE":null,"CLASSIFICATION_TYPE":"U","GP_ID":"220974603","MEAN_MOTION":"15.08852079","FILE":"3711888","PERIAPSIS":"538.026","MEAN_MOTION_DOT":"0.00002806","LAUNCH_DATE":"2022-03-03","RA_OF_ASC_NODE":"247.0693","MEAN_MOTION_DDOT":"0.0000000000000","REF_FRAME":"TEME","CENTER_NAME":"EARTH","REV_AT_EPOCH":"4566","TIME_SYSTEM":"UTC"},{"BSTAR":"0.00008513700000","OBJECT_TYPE":"PAYLOAD","NORAD_CAT_ID":"51872","APOAPSIS":"541.447","ARG_OF_PERICENTER":"34.2754","EPOCH":"2022-12-19T23:49:51.199680","MEAN_ELEMENT_THEORY":"SGP4","OBJECT_NAME":"STARLINK-3554","PERIOD":"95.437","ELEMENT_SET_NO":"999","RCS_SIZE":"LARGE","TLE_LINE1":"1 51872U 22022W   22353.99295370  .00001067  00000-0  85137-4 0  9992","SITE":"AFETR","INCLINATION":"53.2172","TLE_LINE2":"2 51872  53.2172 247.0445 0002502  34.2754 325.8399 15.08849623 45627","COUNTRY_CODE":"US","MEAN_ANOMALY":"325.8399","SEMIMAJOR_AXIS":"6917.851","OBJECT_ID":"2022-022W","EPHEMERIS_TYPE":"0","ECCENTRICITY":"0.00025020","DECAY_DATE":null,"CLASSIFICATION_TYPE":"U","FILE":"3711888","GP_ID":"220974486","PERIAPSIS":"537.985","MEAN_MOTION":"15.08849623","MEAN_MOTION_DOT":"0.00001067","LAUNCH_DATE":"2022-03-03","MEAN_MOTION_DDOT":"0.0000000000000","RA_OF_ASC_NODE":"247.0445","REF_FRAME":"TEME","REV_AT_EPOCH":"4562","CENTER_NAME":"EARTH","TIME_SYSTEM":"UTC"}];
